1 45184U 20012G   23283.27891121  .00003228  00000-0  23555-3 0  9994
2 45184  53.0557  23.4196 0000930  99.2346 260.8749 15.06386725201595
1 45184U 20012G   23283.54430014  .00023739  00000-0  16075-2 0  9991
2 45184  53.0544  22.2281 0001466 104.3672 255.7480 15.06393275201344
1 45184U 20012G   23283.74334136  .00027521  00000-0  18593-2 0  9991
2 45184  53.0546  21.3342 0001506 104.9157 255.1998 15.06399419201370
1 45184U 20012G   23283.74334136  .00027521  00000-0  18593-2 0  9991
2 45184  53.0546  21.3342 0001506 104.9157 255.1998 15.06399419201662
1 45184U 20012G   23284.40681624  .00023618  00000-0  15991-2 0  9994
2 45184  53.0556  18.3558 0001574 106.0376 254.0786 15.06401306201762
1 45184U 20012G   23284.53951044  .00022089  00000-0  14971-2 0  9992
2 45184  53.0558  17.7604 0001501  95.1632 264.9528 15.06401346201490
1 45184U 20012G   23285.40202615  .00017425  00000-0  11860-2 0  9994
2 45184  53.0558  13.8894 0001402 102.3629 257.7517 15.06393245201918
1 45184U 20012G   23285.46837313  .00018862  00000-0  12820-2 0  9992
2 45184  53.0557  13.5915 0001457 102.6080 257.5072 15.06394254201636
1 45184U 20012G   23286.52991953  .00016915  00000-0  11511-2 0  9994
2 45184  53.0558   8.8275 0001414  93.5593 266.5558 15.06420735202086
1 45184U 20012G   23286.92799934  .00010995  00000-0  75554-3 0  9993
2 45184  53.0552   7.0408 0001240  98.9489 261.1640 15.06415408201857
1 45184U 20012G   23286.92799934  .00010995  00000-0  75554-3 0  9993
2 45184  53.0552   7.0408 0001240  98.9489 261.1640 15.06415408202140
1 45184U 20012G   23287.45877752  .00000463  00000-0  50017-4 0  9994
2 45184  53.0575   4.6645 0001774 112.7495 247.3682 15.06397164202224
1 45184U 20012G   23287.52512551  .00001206  00000-0  99855-4 0  9994
2 45184  53.0571   4.3633 0001796 109.9726 250.1457 15.06398742201946
1 45184U 20012G   23287.65781522  .00003139  00000-0  22949-3 0  9990
2 45184  53.0549   3.7645 0001531 107.0536 253.0620 15.06405780201969
1 45184U 20012G   23288.52032864 -.00000261  00000-0  13941-5 0  9993
2 45184  53.0548 359.8904 0001502 102.2842 257.8315 15.06397499202383
1 45184U 20012G   23288.58667652  .00000389  00000-0  44982-4 0  9996
2 45184  53.0555 359.5940 0001486  94.3305 265.7854 15.06397706202101
1 45184U 20012G   23288.91841684 -.00000818  00000-0 -36002-4 0  9995
2 45184  53.0550 358.1046 0001611  88.9141 271.2033 15.06389065202442
1 45184U 20012G   23289.44919680  .00000441  00000-0  48530-4 0  9995
2 45184  53.0549 355.7229 0001488  94.8870 265.2289 15.06389503202233
1 45184U 20012G   23290.44439107  .00005421  00000-0  38246-3 0  9993
2 45184  53.0550 351.2542 0001533  89.8937 270.2227 15.06411053202383
1 45184U 20012G   23290.44439107  .00005421  00000-0  38246-3 0  9993
2 45184  53.0550 351.2542 0001533  89.8937 270.2227 15.06411053202675
1 45184U 20012G   23291.17421257  .00004088  00000-0  29319-3 0  9990
2 45184  53.0554 347.9792 0001494  83.4811 276.6348 15.06401827202497
1 45184U 20012G   23291.43959931  .00001501  00000-0  11961-3 0  9995
2 45184  53.0573 346.7836 0001765 102.8156 257.3030 15.06402177202823
1 45184U 20012G   23292.16940326  .00002269  00000-0  17113-3 0  9991
2 45184  53.0559 343.5077 0001532  96.8286 263.2877 15.06415939202934
1 45184U 20012G   23292.36844013  .00005254  00000-0  37112-3 0  9997
2 45184  53.0562 342.6155 0001544  95.1119 265.0046 15.06422782202678
1 45184U 20012G   23292.83286940  .00002771  00000-0  20477-3 0  9995
2 45184  53.0564 340.5307 0001588  67.8291 292.2867 15.06410959203038
1 45184U 20012G   23293.16460929  .00001022  00000-0  87521-4 0  9995
2 45184  53.0572 339.0455 0002587  91.6814 268.4471 15.06401474203083
1 45184U 20012G   23293.42999871 -.00003440  00000-0 -21219-3 0  9996
2 45184  53.0561 337.8520 0001378  90.3592 269.7555 15.06389500202830
1 45184U 20012G   23293.42999871 -.00003440  00000-0 -21219-3 0  9996
2 45184  53.0561 337.8520 0001378  90.3592 269.7555 15.06389500203123
1 45184U 20012G   23294.49155328  .00009629  00000-0  66443-3 0  9996
2 45184  53.0555 333.0860 0001318  79.3167 280.7970 15.06400514203280
1 45184U 20012G   23294.82328799  .00003385  00000-0  24605-3 0  9994
2 45184  53.0549 331.5939 0001251  89.1270 270.9863 15.06395589203044
1 45184U 20012G   23294.82328799  .00003385  00000-0  24605-3 0  9994
2 45184  53.0549 331.5939 0001251  89.1270 270.9863 15.06395589203336
1 45184U 20012G   23295.42041441  .00002214  00000-0  16752-3 0  9991
2 45184  53.0552 328.9185 0001303  90.3797 269.7341 15.06392114203135
1 45184U 20012G   23295.81849310  .00003255  00000-0  23731-3 0  9996
2 45184  53.0550 327.1302 0001280  86.7130 273.4005 15.06399739203194
1 45184U 20012G   23296.34926131  .00003512  00000-0  25451-3 0  9999
2 45184  53.0547 324.7466 0001226  90.1174 269.9955 15.06409543203561
1 45184U 20012G   23296.81369094  .00002070  00000-0  15783-3 0  9995
2 45184  53.0542 322.6615 0001148  90.5905 269.5215 15.06403264203635
1 45184U 20012G   23297.07908351  .00000700  00000-0  65881-4 0  9992
2 45184  53.0541 321.4716 0001253  88.1350 271.9782 15.06394569203674
1 45184U 20012G   23297.34447053  .00000610  00000-0  59827-4 0  9992
2 45184  53.0542 320.2790 0001259  94.0737 266.0396 15.06395210203428
1 45184U 20012G   23298.27331932  .00000165  00000-0  29987-4 0  9992
2 45184  53.0556 316.1082 0001351 100.0448 260.0693 15.06407014203566
1 45184U 20012G   23298.27331932  .00000165  00000-0  29987-4 0  9992
2 45184  53.0556 316.1082 0001351 100.0448 260.0693 15.06407014203858
1 45184U 20012G   23299.06949262  .00000244  00000-0  35264-4 0  9994
2 45184  53.0564 312.5351 0001423 100.5920 259.5229 15.06389490203974
1 45184U 20012G   23299.26853253  .00000356  00000-0  42833-4 0  9994
2 45184  53.0560 311.6415 0001451 100.4434 259.6719 15.06391408203710
1 45184U 20012G   23299.73296025  .00000346  00000-0  42103-4 0  9993
2 45184  53.0568 309.5592 0001504 101.0966 259.0193 15.06394402203780
1 45184U 20012G   23300.19737907  .00001537  00000-0  12201-3 0  9993
2 45184  53.0557 307.4737 0001474 101.6728 258.4426 15.06405843204149
1 45184U 20012G   23300.39641869  .00001590  00000-0  12561-3 0  9994
2 45184  53.0556 306.5790 0001483  99.3847 260.7310 15.06406849203887
1 45184U 20012G   23300.72815967  .00000581  00000-0  57917-4 0  9997
2 45184  53.0556 305.0899 0001385  90.4951 269.6197 15.06398293203930
1 45184U 20012G   23300.72815967  .00000581  00000-0  57917-4 0  9997
2 45184  53.0556 305.0899 0001385  90.4951 269.6197 15.06398293204223
1 45184U 20012G   23301.39164213  .00000336  00000-0  41490-4 0  9999
2 45184  53.0547 302.1094 0001484  70.7432 289.3717 15.06386861204037
1 45184U 20012G   23301.39164213  .00000336  00000-0  41490-4 0  9999
2 45184  53.0547 302.1094 0001484  70.7432 289.3717 15.06386861204329
1 45184U 20012G   23301.72337436  .00000718  00000-0  67089-4 0  9991
2 45184  53.0549 300.6206 0001379  87.7316 272.3831 15.06391566204081
1 45184U 20012G   23302.18779893  .00001328  00000-0  10804-3 0  9999
2 45184  53.0541 298.5358 0001408  85.1486 274.9663 15.06397112204443
1 45184U 20012G   23302.38683985  .00004003  00000-0  28745-3 0  9993
2 45184  53.0535 297.6418 0001417  85.0557 275.0594 15.06399569204185
1 45184U 20012G   23302.71857638  .00004158  00000-0  29786-3 0  9995
2 45184  53.0534 296.1522 0001430  84.5655 275.5497 15.06398422204232
1 45184U 20012G   23303.38204501  .00005736  00000-0  40361-3 0  9999
2 45184  53.0534 293.1733 0001483  85.0610 275.0548 15.06404343204623
1 45184U 20012G   23303.71377535  .00006973  00000-0  48637-3 0  9992
2 45184  53.0535 291.6846 0001509  84.8904 275.2257 15.06412323204383
1 45184U 20012G   23304.24454135  .00007882  00000-0  54711-3 0  9993
2 45184  53.0539 289.3013 0001549  87.5035 272.6131 15.06423012204464
1 45184U 20012G   23304.24454135  .00007882  00000-0  54711-3 0  9993
2 45184  53.0539 289.3013 0001549  87.5035 272.6131 15.06423012204756
1 45184U 20012G   23305.17339743 -.00001202  00000-0 -61809-4 0  9992
2 45184  53.0547 285.1308 0001354 102.1727 257.9414 15.06402039204893
1 45184U 20012G   23305.23974434 -.00000995  00000-0 -47910-4 0  9996
2 45184  53.0542 284.8340 0001268  91.3655 268.7479 15.06401312204617
1 45184U 20012G   23305.63782460  .00003430  00000-0  24900-3 0  9994
2 45184  53.0542 283.0470 0001271  92.7914 267.3221 15.06404568204671
1 45184U 20012G   23306.23494245  .00012054  00000-0  82635-3 0  9993
2 45184  53.0545 280.3666 0001304  95.5211 264.5926 15.06417686205058
1 45184U 20012G   23306.36763365  .00012398  00000-0  84927-3 0  9996
2 45184  53.0542 279.7704 0001298  94.5589 265.5548 15.06422201204788
1 45184U 20012G   23306.63302005  .00007882  00000-0  54719-3 0  9994
2 45184  53.0535 278.5756 0001312  68.9630 291.1499 15.06416697205113
1 45184U 20012G   23306.89841382  .00005149  00000-0  36425-3 0  9996
2 45184  53.0541 277.3885 0002697  80.3866 279.7428 15.06409798204865
1 45184U 20012G   23307.16380298 -.00002794  00000-0 -16877-3 0  9995
2 45184  53.0541 276.1970 0001427  85.1360 274.9792 15.06388719205196
1 45184U 20012G   23307.29649950 -.00001925  00000-0 -11039-3 0  9992
2 45184  53.0549 275.6024 0001693  83.3345 276.7837 15.06387233204926
1 45184U 20012G   23307.89362193  .00007957  00000-0  55247-3 0  9997
2 45184  53.0543 272.9207 0001449  85.7812 274.3343 15.06401034205010
1 45184U 20012G   23308.15900905  .00016108  00000-0  10975-2 0  9992
2 45184  53.0543 271.7300 0001481  85.4089 274.7069 15.06410094205341
1 45184U 20012G   23308.29170124  .00016830  00000-0  11456-2 0  9996
2 45184  53.0542 271.1340 0001460  86.3569 273.7587 15.06415252205073
1 45184U 20012G   23308.62343854  .00006222  00000-0  43620-3 0  9998
2 45184  53.0549 269.6450 0001504  92.1603 267.9559 15.06401151205120
1 45184U 20012G   23308.62343854  .00006222  00000-0  43620-3 0  9998
2 45184  53.0549 269.6450 0001504  92.1603 267.9559 15.06401151205412
1 45184U 20012G   23309.15421746  .00005867  00000-0  41246-3 0  9990
2 45184  53.0541 267.2622 0001717  96.8098 263.3087 15.06400552205492
